NORAD_CAT_ID,OBJECT_NAME,OBJECT_TYPE,EPOCH,MEAN_MOTION,ECCENTRICITY,INCLINATION,RA_OF_ASC_NODE,ARG_OF_PERICENTER,MEAN_ANOMALY,BSTAR,MEAN_MOTION_DOT,MEAN_MOTION_DDOT,TLE_LINE0,TLE_LINE1,TLE_LINE2,SEMIMAJOR_AXIS,PERIOD,APOGEE,PERIGEE,DECAYED
55632.0,STARLINK-5546,PAYLOAD,2024-08-02 18:40:24,14.98330145,0.0003204,69.998,236.7123,267.7702,92.309,1.0083e-05,2.7e-07,0.0,0 STARLINK-5546,1 55632U 23021E   24215.77806321  .00000027  00000-0  10083-4 0  9992,2 55632  69.9980 236.7123 0003204 267.7702  92.3090 14.98330145 80838,6950.192,96.107,574.284,569.831,0.0
55632.0,STARLINK-5546,PAYLOAD,2024-08-03 10:41:45,14.98333039,0.0003305,69.9978,235.0284,267.7715,92.3065,2.4135e-05,1.95e-06,0.0,0 STARLINK-5546,1 55632U 23021E   24216.44565978  .00000195  00000-0  24135-4 0  9996,2 55632  69.9978 235.0284 0003305 267.7715  92.3065 14.98333039 80636,6950.183,96.107,574.346,569.751,0.0
55632.0,STARLINK-5546,PAYLOAD,2024-08-03 18:42:25,14.98332237,0.0003349,69.9978,234.1866,268.2579,91.8196,3.3858e-05,3.11e-06,0.0,0 STARLINK-5546,1 55632U 23021E   24216.77945940  .00000311  00000-0  33858-4 0  9995,2 55632  69.9978 234.1866 0003349 268.2579  91.8196 14.98332237 80980,6950.186,96.107,574.379,569.723,0.0
55632.0,STARLINK-5546,PAYLOAD,2024-08-04 10:43:45,14.98331326,0.0003345,69.9979,232.5034,268.1401,91.9375,6.139e-05,6.4e-06,0.0,0 STARLINK-5546,1 55632U 23021E   24217.44705918  .00000640  00000-0  61390-4 0  9996,2 55632  69.9979 232.5034 0003345 268.1401  91.9375 14.98331326 80785,6950.189,96.107,574.379,569.729,0.0
55632.0,STARLINK-5546,PAYLOAD,2024-08-04 18:44:26,14.98328905,0.000333,69.9978,231.6614,267.8625,92.2153,9.0425e-05,9.86e-06,0.0,0 STARLINK-5546,1 55632U 23021E   24217.78085989  .00000986  00000-0  90425-4 0  9996,2 55632  69.9978 231.6614 0003330 267.8625  92.2153 14.98328905 81133,6950.196,96.107,574.376,569.747,0.0
55632.0,STARLINK-5546,PAYLOAD,2024-08-05 10:45:46,14.98335848,0.0003356,69.998,229.9783,268.2783,91.7992,5.4882e-05,5.62e-06,0.0,0 STARLINK-5546,1 55632U 23021E   24218.44845495  .00000562  00000-0  54882-4 0  9993,2 55632  69.9980 229.9783 0003356 268.2783  91.7992 14.98335848 80937,6950.175,96.107,574.372,569.707,0.0
55632.0,STARLINK-5546,PAYLOAD,2024-08-06 04:23:15,14.98327305,0.0003298,69.9983,228.1266,268.1728,91.9054,-2.2787e-05,-3.65e-06,0.0,0 STARLINK-5546,1 55632U 23021E   24219.18282177 -.00000365  00000-0 -22787-4 0  9999,2 55632  69.9983 228.1266 0003298 268.1728  91.9054 14.98327305 81043,6950.201,96.107,574.358,569.774,0.0
55632.0,STARLINK-5546,PAYLOAD,2024-08-06 07:35:31,14.98327195,0.0003314,69.9984,227.79,268.3382,91.7397,-3.2199e-05,-4.77e-06,0.0,0 STARLINK-5546,1 55632U 23021E   24219.31634227 -.00000477  00000-0 -32199-4 0  9993,2 55632  69.9984 227.7900 0003314 268.3382  91.7397 14.98327195 81361,6950.202,96.107,574.37,569.763,0.0
55632.0,STARLINK-5546,PAYLOAD,2024-08-06 17:12:20,14.98327083,0.000332,69.9987,226.7802,268.8219,91.256,-1.6207e-05,-2.86e-06,0.0,0 STARLINK-5546,1 55632U 23021E   24219.71690260 -.00000286  00000-0 -16207-4 0  9996,2 55632  69.9987 226.7802 0003320 268.8219  91.2560 14.98327083 81425,6950.202,96.107,574.374,569.759,0.0
55632.0,STARLINK-5546,PAYLOAD,2024-08-07 04:25:16,14.98330668,0.0003326,69.9987,225.6019,268.7853,91.2925,2.8222e-06,-5.9e-07,0.0,0 STARLINK-5546,1 55632U 23021E   24220.18421997 -.00000059  00000-0  28222-5 0  9996,2 55632  69.9987 225.6019 0003326 268.7853  91.2925 14.98330668 81194,6950.191,96.107,574.367,569.744,0.0
55632.0,STARLINK-5546,PAYLOAD,2024-08-07 10:49:48,14.98332074,0.0003296,69.9988,224.9289,268.265,91.8131,1.5504e-05,9.2e-07,0.0,0 STARLINK-5546,1 55632U 23021E   24220.45125863  .00000092  00000-0  15504-4 0  9993,2 55632  69.9988 224.9289 0003296 268.2650  91.8131 14.98332074 81538,6950.186,96.107,574.342,569.761,0.0
55632.0,STARLINK-5546,PAYLOAD,2024-08-08 10:51:49,14.98332092,0.0003276,69.9989,222.4036,269.9085,90.1698,0.00015613,1.77e-05,0.0,0 STARLINK-5546,1 55632U 23021E   24221.45265501  .00001770  00000-0  15613-3 0  9992,2 55632  69.9989 222.4036 0003276 269.9085  90.1698 14.98332092 81686,6950.186,96.107,574.328,569.775,0.0
55632.0,STARLINK-5546,PAYLOAD,2024-08-09 09:17:42,14.98331961,0.0003217,69.9991,220.0473,266.8052,93.2739,3.782e-05,3.58e-06,0.0,0 STARLINK-5546,1 55632U 23021E   24222.38729684  .00000358  00000-0  37820-4 0  9998,2 55632  69.9991 220.0473 0003217 266.8052  93.2739 14.98331961 81823,6950.187,96.107,574.288,569.816,0.0
55632.0,STARLINK-5546,PAYLOAD,2024-08-09 17:18:22,14.98327852,0.0003243,69.999,219.2057,267.9574,92.1213,0.00011196,1.243e-05,0.0,0 STARLINK-5546,1 55632U 23021E   24222.72109752  .00001243  00000-0  11196-3 0  9995,2 55632  69.9990 219.2057 0003243 267.9574  92.1213 14.98327852 81571,6950.2,96.107,574.318,569.811,0.0
55632.0,STARLINK-5546,PAYLOAD,2024-08-10 09:19:43,14.98333794,0.0003212,69.9992,217.523,268.386,91.6931,1.1112e-06,-8e-07,0.0,0 STARLINK-5546,1 55632U 23021E   24223.38869499 -.00000080  00000-0  11112-5 0  9998,2 55632  69.9992 217.5230 0003212 268.3860  91.6931 14.98333794 81973,6950.181,96.107,574.279,569.814,0.0
55632.0,STARLINK-5546,PAYLOAD,2024-08-11 02:57:12,14.98328981,0.0003209,69.9993,215.6719,268.7087,91.3704,1.2473e-05,5.6e-07,0.0,0 STARLINK-5546,1 55632U 23021E   24224.12305742  .00000056  00000-0  12473-4 0  9999,2 55632  69.9993 215.6719 0003209 268.7087  91.3704 14.98328981 81782,6950.196,96.107,574.291,569.831,0.0
55632.0,STARLINK-5546,PAYLOAD,2024-08-11 17:22:24,14.98331367,0.0003102,69.9994,214.1556,268.695,91.3854,3.0343e-05,2.69e-06,0.0,0 STARLINK-5546,1 55632U 23021E   24224.72389591  .00000269  00000-0  30343-4 0  9991,2 55632  69.9994 214.1556 0003102 268.6950  91.3854 14.98331367 82178,6950.189,96.107,574.21,569.898,0.0
55632.0,STARLINK-5546,PAYLOAD,2024-08-12 04:35:20,14.98332407,0.0003136,69.9992,212.9772,268.7509,91.3291,5.4183e-05,5.54e-06,0.0,0 STARLINK-5546,1 55632U 23021E   24225.19121383  .00000554  00000-0  54183-4 0  9991,2 55632  69.9992 212.9772 0003136 268.7509  91.3291 14.98332407 81945,6950.185,96.107,574.23,569.871,0.0
55632.0,STARLINK-5546,PAYLOAD,2024-08-12 09:23:44,14.98337937,0.0003143,69.9992,212.4726,269.1,90.9799,0.00012023,1.342e-05,0.0,0 STARLINK-5546,1 55632U 23021E   24225.39148813  .00001342  00000-0  12023-3 0  9992,2 55632  69.9992 212.4726 0003143 269.1000  90.9799 14.98337937 82276,6950.168,96.106,574.218,569.849,0.0
55632.0,STARLINK-5546,PAYLOAD,2024-08-12 22:12:49,14.98333258,0.0002972,69.9994,211.1261,265.0275,95.0545,9.7046e-05,1.065e-05,0.0,0 STARLINK-5546,1 55632U 23021E   24225.92557057  .00001065  00000-0  97046-4 0  9996,2 55632  69.9994 211.1261 0002972 265.0275  95.0545 14.98333258 82352,6950.183,96.107,574.113,569.982,0.0
55632.0,STARLINK-5546,PAYLOAD,2024-08-13 04:37:21,14.98334389,0.0002876,69.9995,210.4523,268.823,91.2599,5.872e-05,6.08e-06,0.0,0 STARLINK-5546,1 55632U 23021E   24226.19260962  .00000608  00000-0  58720-4 0  9990,2 55632  69.9995 210.4523 0002876 268.8230  91.2599 14.98334389 82095,6950.179,96.107,574.043,570.045,0.0
55632.0,STARLINK-5546,PAYLOAD,2024-08-13 09:25:45,14.98336392,0.0002863,69.9996,209.9474,268.1435,91.9396,7.47e-05,7.99e-06,0.0,0 STARLINK-5546,1 55632U 23021E   24226.39288714  .00000799  00000-0  74700-4 0  9994,2 55632  69.9996 209.9474 0002863 268.1435  91.9396 14.98336392 82425,6950.173,96.107,574.028,570.048,0.0
55632.0,STARLINK-5546,PAYLOAD,2024-08-13 15:50:18,14.9833518,0.0002232,70.0013,209.2746,270.491,89.5993,-0.00030424,-3.721e-05,0.0,0 STARLINK-5546,1 55632U 23021E   24226.65993879 -.00003721  00000-0 -30424-3 0  9992,2 55632  70.0013 209.2746 0002232 270.4910  89.5993 14.98335180 82168,6950.177,96.107,573.593,570.491,0.0
55632.0,STARLINK-5546,PAYLOAD,2024-08-13 22:14:51,14.98323789,0.0002516,69.9993,208.6015,275.5063,84.5809,-9.0602e-05,-1.174e-05,0.0,0 STARLINK-5546,1 55632U 23021E   24226.92698243 -.00001174  00000-0 -90602-4 0  9994,2 55632  69.9993 208.6015 0002516 275.5063  84.5809 14.98323789 82505,6950.212,96.107,573.826,570.328,0.0
55632.0,STARLINK-5546,PAYLOAD,2024-08-14 04:39:24,14.98313577,0.0002758,69.9999,207.9287,271.8167,88.2676,-0.00017053,-2.126e-05,0.0,0 STARLINK-5546,1 55632U 23021E   24227.19403194 -.00002126  00000-0 -17053-3 0  9999,2 55632  69.9999 207.9287 0002758 271.8167  88.2676 14.98313577 82244,6950.244,96.108,574.026,570.192,0.0
55632.0,STARLINK-5546,PAYLOAD,2024-08-14 07:51:40,14.98311482,0.00026,70.0001,207.5925,264.9749,95.1113,-0.00018255,-2.269e-05,0.0,0 STARLINK-5546,1 55632U 23021E   24227.32755481 -.00002269  00000-0 -18255-3 0  9996,2 55632  70.0001 207.5925 0002600 264.9749  95.1113 14.98311482 82562,6950.25,96.108,573.922,570.308,0.0
55632.0,STARLINK-5546,PAYLOAD,2024-08-15 04:41:25,14.98320426,0.0002879,69.9997,205.4035,271.1579,88.925,-6.0434e-05,-8.14e-06,0.0,0 STARLINK-5546,1 55632U 23021E   24228.19543229 -.00000814  00000-0 -60434-4 0  9998,2 55632  69.9997 205.4035 0002879 271.1579  88.9250 14.98320426 82392,6950.222,96.108,574.088,570.087,0.0
55632.0,STARLINK-5546,PAYLOAD,2024-08-15 07:53:41,14.98319821,0.0002811,69.9999,205.0674,271.3581,88.7256,-4.1298e-05,-5.86e-06,0.0,0 STARLINK-5546,1 55632U 23021E   24228.32895345 -.00000586  00000-0 -41298-4 0  9995,2 55632  69.9999 205.0674 0002811 271.3581  88.7256 14.98319821 82717,6950.224,96.108,574.043,570.136,0.0
55632.0,STARLINK-5546,PAYLOAD,2024-08-15 15:54:21,14.9832608,0.0002943,69.9995,204.2254,271.435,88.6472,-2.5704e-05,-4e-06,0.0,0 STARLINK-5546,1 55632U 23021E   24228.66275051 -.00000400  00000-0 -25704-4 0  9997,2 55632  69.9995 204.2254 0002943 271.4350  88.6472 14.98326080 82768,6950.205,96.107,574.115,570.025,0.0
55632.0,STARLINK-5546,PAYLOAD,2024-08-16 04:43:26,14.98321262,0.0003059,69.9993,202.8783,273.3192,86.7617,0.00024739,2.859e-05,0.0,0 STARLINK-5546,1 55632U 23021E   24229.19683139  .00002859  00000-0  24739-3 0  9990,2 55632  69.9993 202.8783 0003059 273.3192  86.7617 14.98321262 82544,6950.22,96.108,574.211,569.959,0.0
